start=new Date('2023-01-04T00:00:00.000Z').valueOf();
sats=[{"ELEMENT_SET_NO":"999","REF_FRAME":"TEME","RA_OF_ASC_NODE":"9.7718","EPOCH":"2023-01-03T10:03:52.881120","PERIOD":"95.592","TLE_LINE2":"2 45774  53.0535   9.7718 0001498  79.2694 280.8463 15.06398035141727","LAUNCH_DATE":"2020-06-13","CLASSIFICATION_TYPE":"U","COUNTRY_CODE":"US","ECCENTRICITY":"0.00014980","EPHEMERIS_TYPE":"0","MEAN_MOTION_DOT":"0.00003059","OBJECT_NAME":"STARLINK-1485","APOAPSIS":"548.257","RCS_SIZE":"LARGE","ARG_OF_PERICENTER":"79.2694","MEAN_MOTION_DDOT":"0.0000000000000","FILE":"3730926","CENTER_NAME":"EARTH","SEMIMAJOR_AXIS":"6925.355","SITE":"AFETR","NORAD_CAT_ID":"45774","MEAN_ELEMENT_THEORY":"SGP4","BSTAR":"0.00022420000000","TLE_LINE1":"1 45774U 20038AW  23003.41936205  .00003059  00000-0  22420-3 0  9998","TIME_SYSTEM":"UTC","OBJECT_TYPE":"PAYLOAD","OBJECT_ID":"2020-038AW","DECAY_DATE":null,"INCLINATION":"53.0535","MEAN_ANOMALY":"280.8463","GP_ID":"222110480","PERIAPSIS":"546.182","REV_AT_EPOCH":"14172","MEAN_MOTION":"15.06398035"},{"ELEMENT_SET_NO":"999","REF_FRAME":"TEME","RA_OF_ASC_NODE":"9.6631","EPOCH":"2023-01-03T06:59:21.338880","PERIOD":"95.431","TLE_LINE2":"2 45775  53.0541   9.6631 0001000  14.3517 345.7501 15.08941242141721","LAUNCH_DATE":"2020-06-13","CLASSIFICATION_TYPE":"U","COUNTRY_CODE":"US","ECCENTRICITY":"0.00010000","MEAN_MOTION_DOT":"0.00021305","EPHEMERIS_TYPE":"0","OBJECT_NAME":"STARLINK-1488","APOAPSIS":"540.128","RCS_SIZE":"LARGE","ARG_OF_PERICENTER":"14.3517","MEAN_MOTION_DDOT":"0.0000000000000","CENTER_NAME":"EARTH","FILE":"3730926","SEMIMAJOR_AXIS":"6917.571","SITE":"AFETR","NORAD_CAT_ID":"45775","MEAN_ELEMENT_THEORY":"SGP4","BSTAR":"0.00134880000000","TLE_LINE1":"1 45775U 20038AX  23003.29121920  .00021305  00000-0  13488-2 0  9992","TIME_SYSTEM":"UTC","OBJECT_TYPE":"PAYLOAD","OBJECT_ID":"2020-038AX","INCLINATION":"53.0541","DECAY_DATE":null,"MEAN_ANOMALY":"345.7501","GP_ID":"222110710","REV_AT_EPOCH":"14172","PERIAPSIS":"538.744","MEAN_MOTION":"15.08941242"},{"APOAPSIS":"548.933","EPHEMERIS_TYPE":"0","MEAN_MOTION_DOT":"0.00001683","OBJECT_NAME":"STARLINK-1489","ECCENTRICITY":"0.00024510","COUNTRY_CODE":"US","CENTER_NAME":"EARTH","FILE":"3730795","MEAN_MOTION_DDOT":"0.0000000000000","ARG_OF_PERICENTER":"33.9950","RCS_SIZE":"LARGE","EPOCH":"2023-01-03T16:41:58.186176","RA_OF_ASC_NODE":"8.5318","ELEMENT_SET_NO":"999","REF_FRAME":"TEME","LAUNCH_DATE":"2020-06-13","CLASSIFICATION_TYPE":"U","TLE_LINE2":"2 45776  53.0550   8.5318 0002451  33.9950 326.1196 15.06392755142889","PERIOD":"95.593","INCLINATION":"53.0550","DECAY_DATE":null,"OBJECT_ID":"2020-038AY","OBJECT_TYPE":"PAYLOAD","MEAN_MOTION":"15.06392755","GP_ID":"222087024","PERIAPSIS":"545.538","REV_AT_EPOCH":"14288","MEAN_ANOMALY":"326.1196","SITE":"AFETR","NORAD_CAT_ID":"45776","SEMIMAJOR_AXIS":"6925.371","TLE_LINE1":"1 45776U 20038AY  23003.69581234  .00001683  00000-0  13190-3 0  9993","TIME_SYSTEM":"UTC","BSTAR":"0.00013190000000","MEAN_ELEMENT_THEORY":"SGP4"},{"REV_AT_EPOCH":"14170","GP_ID":"222109730","PERIAPSIS":"544.986","MEAN_MOTION":"15.06488660","MEAN_ANOMALY":"315.9552","DECAY_DATE":null,"INCLINATION":"53.0543","OBJECT_TYPE":"PAYLOAD","OBJECT_ID":"2020-038AZ","TIME_SYSTEM":"UTC","TLE_LINE1":"1 45777U 20038AZ  23003.22761396  .00017045  00000-0  11576-2 0  9996","MEAN_ELEMENT_THEORY":"SGP4","BSTAR":"0.00115760000000","NORAD_CAT_ID":"45777","SITE":"AFETR","SEMIMAJOR_AXIS":"6925.077","ARG_OF_PERICENTER":"44.1662","MEAN_MOTION_DDOT":"0.0000000000000","CENTER_NAME":"EARTH","FILE":"3730926","RCS_SIZE":"LARGE","OBJECT_NAME":"STARLINK-1490","EPHEMERIS_TYPE":"0","MEAN_MOTION_DOT":"0.00017045","APOAPSIS":"548.897","COUNTRY_CODE":"US","ECCENTRICITY":"0.00028240","CLASSIFICATION_TYPE":"U","LAUNCH_DATE":"2020-06-13","PERIOD":"95.587","TLE_LINE2":"2 45777  53.0543  10.6263 0002824  44.1662 315.9552 15.06488660141706","RA_OF_ASC_NODE":"10.6263","EPOCH":"2023-01-03T05:27:45.846144","REF_FRAME":"TEME","ELEMENT_SET_NO":"999"},{"SEMIMAJOR_AXIS":"6925.356","NORAD_CAT_ID":"45778","SITE":"AFETR","BSTAR":"0.00026416000000","MEAN_ELEMENT_THEORY":"SGP4","TIME_SYSTEM":"UTC","TLE_LINE1":"1 45778U 20038BA  23003.40830662  .00003655  00000-0  26416-3 0  9992","OBJECT_ID":"2020-038BA","OBJECT_TYPE":"PAYLOAD","DECAY_DATE":null,"INCLINATION":"53.0559","MEAN_ANOMALY":"318.9714","MEAN_MOTION":"15.06397708","GP_ID":"222109980","PERIAPSIS":"545.840","REV_AT_EPOCH":"14171","REF_FRAME":"TEME","ELEMENT_SET_NO":"999","EPOCH":"2023-01-03T09:47:57.691968","RA_OF_ASC_NODE":"9.8106","TLE_LINE2":"2 45778  53.0559   9.8106 0001994  41.1425 318.9714 15.06397708141717","PERIOD":"95.592","CLASSIFICATION_TYPE":"U","LAUNCH_DATE":"2020-06-13","ECCENTRICITY":"0.00019940","COUNTRY_CODE":"US","APOAPSIS":"548.601","OBJECT_NAME":"STARLINK-1491","EPHEMERIS_TYPE":"0","MEAN_MOTION_DOT":"0.00003655","RCS_SIZE":"LARGE","FILE":"3730926","CENTER_NAME":"EARTH","MEAN_MOTION_DDOT":"0.0000000000000","ARG_OF_PERICENTER":"41.1425"},{"BSTAR":"0.00151030000000","MEAN_ELEMENT_THEORY":"SGP4","TLE_LINE1":"1 45779U 20038BB  23003.30859525  .00025974  00000-0  15103-2 0  9999","TIME_SYSTEM":"UTC","SEMIMAJOR_AXIS":"6908.465","SITE":"AFETR","NORAD_CAT_ID":"45779","MEAN_ANOMALY":"324.4038","MEAN_MOTION":"15.11925526","PERIAPSIS":"529.112","GP_ID":"222110210","REV_AT_EPOCH":"14173","OBJECT_ID":"2020-038BB","OBJECT_TYPE":"PAYLOAD","INCLINATION":"53.0562","DECAY_DATE":null,"TLE_LINE2":"2 45779  53.0562   7.8847 0001763  35.7071 324.4038 15.11925526141736","PERIOD":"95.243","LAUNCH_DATE":"2020-06-13","CLASSIFICATION_TYPE":"U","ELEMENT_SET_NO":"999","REF_FRAME":"TEME","RA_OF_ASC_NODE":"7.8847","EPOCH":"2023-01-03T07:24:22.629600","RCS_SIZE":"LARGE","CENTER_NAME":"EARTH","FILE":"3730926","ARG_OF_PERICENTER":"35.7071","MEAN_MOTION_DDOT":"0.0000000000000","ECCENTRICITY":"0.00017630","COUNTRY_CODE":"US","APOAPSIS":"531.548","MEAN_MOTION_DOT":"0.00025974","EPHEMERIS_TYPE":"0","OBJECT_NAME":"STARLINK-1492"},{"LAUNCH_DATE":"2020-06-13","CLASSIFICATION_TYPE":"U","TLE_LINE2":"2 45780  53.0567  10.3640 0001817  55.3436 304.7724 15.06401714141696","PERIOD":"95.592","RA_OF_ASC_NODE":"10.3640","EPOCH":"2023-01-03T06:47:29.558400","REF_FRAME":"TEME","ELEMENT_SET_NO":"999","CENTER_NAME":"EARTH","FILE":"3730926","MEAN_MOTION_DDOT":"0.0000000000000","ARG_OF_PERICENTER":"55.3436","RCS_SIZE":"LARGE","APOAPSIS":"548.467","OBJECT_NAME":"STARLINK-1496","EPHEMERIS_TYPE":"0","MEAN_MOTION_DOT":"0.00001611","ECCENTRICITY":"0.00018170","COUNTRY_CODE":"US","TIME_SYSTEM":"UTC","TLE_LINE1":"1 45780U 20038BC  23003.28298100  .00001611  00000-0  12702-3 0  9999","BSTAR":"0.00012702000000","MEAN_ELEMENT_THEORY":"SGP4","NORAD_CAT_ID":"45780","SITE":"AFETR","SEMIMAJOR_AXIS":"6925.343","MEAN_MOTION":"15.06401714","REV_AT_EPOCH":"14169","GP_ID":"222108981","PERIAPSIS":"545.950","MEAN_ANOMALY":"304.7724","DECAY_DATE":null,"INCLINATION":"53.0567","OBJECT_ID":"2020-038BC","OBJECT_TYPE":"PAYLOAD"},{"DECAY_DATE":null,"INCLINATION":"53.0555","OBJECT_ID":"2020-038BD","OBJECT_TYPE":"PAYLOAD","MEAN_MOTION":"15.06401050","GP_ID":"222086539","PERIAPSIS":"545.678","REV_AT_EPOCH":"14269","MEAN_ANOMALY":"316.4704","SITE":"AFETR","NORAD_CAT_ID":"45781","SEMIMAJOR_AXIS":"6925.345","TLE_LINE1":"1 45781U 20038BD  23003.70687176  .00005657  00000-0  39837-3 0  9994","TIME_SYSTEM":"UTC","BSTAR":"0.00039837000000","MEAN_ELEMENT_THEORY":"SGP4","APOAPSIS":"548.742","EPHEMERIS_TYPE":"0","MEAN_MOTION_DOT":"0.00005657","OBJECT_NAME":"STARLINK-1497","ECCENTRICITY":"0.00022120","COUNTRY_CODE":"US","FILE":"3730801","CENTER_NAME":"EARTH","ARG_OF_PERICENTER":"43.6460","MEAN_MOTION_DDOT":"0.0000000000000","RCS_SIZE":"LARGE","RA_OF_ASC_NODE":"8.4849","EPOCH":"2023-01-03T16:57:53.720064","ELEMENT_SET_NO":"999","REF_FRAME":"TEME","CLASSIFICATION_TYPE":"U","LAUNCH_DATE":"2020-06-13","TLE_LINE2":"2 45781  53.0555   8.4849 0002212  43.6460 316.4704 15.06401050142692","PERIOD":"95.592"},{"EPOCH":"2023-01-03T06:57:57.109248","RA_OF_ASC_NODE":"7.4517","REF_FRAME":"TEME","ELEMENT_SET_NO":"999","LAUNCH_DATE":"2020-06-13","CLASSIFICATION_TYPE":"U","PERIOD":"95.246","TLE_LINE2":"2 45782  53.0549   7.4517 0001747  45.3221 314.7913 15.11869944141758","OBJECT_NAME":"STARLINK-1498","MEAN_MOTION_DOT":"0.00024416","EPHEMERIS_TYPE":"0","APOAPSIS":"531.706","COUNTRY_CODE":"US","ECCENTRICITY":"0.00017470","ARG_OF_PERICENTER":"45.3221","MEAN_MOTION_DDOT":"0.0000000000000","CENTER_NAME":"EARTH","FILE":"3730926","RCS_SIZE":"LARGE","NORAD_CAT_ID":"45782","SITE":"AFETR","SEMIMAJOR_AXIS":"6908.635","TIME_SYSTEM":"UTC","TLE_LINE1":"1 45782U 20038BE  23003.29024432  .00024416  00000-0  14232-2 0  9994","MEAN_ELEMENT_THEORY":"SGP4","BSTAR":"0.00142320000000","INCLINATION":"53.0549","DECAY_DATE":null,"OBJECT_TYPE":"PAYLOAD","OBJECT_ID":"2020-038BE","PERIAPSIS":"529.293","GP_ID":"222110481","REV_AT_EPOCH":"14175","MEAN_MOTION":"15.11869944","MEAN_ANOMALY":"314.7913"},{"CLASSIFICATION_TYPE":"U","LAUNCH_DATE":"2020-06-13","TLE_LINE2":"2 45783  53.0563   8.4962 0003074  28.7016 331.4142 15.06394052142693","PERIOD":"95.593","EPOCH":"2023-01-03T16:52:34.953312","RA_OF_ASC_NODE":"8.4962","REF_FRAME":"TEME","ELEMENT_SET_NO":"999","FILE":"3730802","CENTER_NAME":"EARTH","ARG_OF_PERICENTER":"28.7016","MEAN_MOTION_DDOT":"0.0000000000000","RCS_SIZE":"LARGE","APOAPSIS":"549.361","OBJECT_NAME":"STARLINK-1505","MEAN_MOTION_DOT":"0.00002122","EPHEMERIS_TYPE":"0","ECCENTRICITY":"0.00030740","COUNTRY_CODE":"US","TIME_SYSTEM":"UTC","TLE_LINE1":"1 45783U 20038BF  23003.70318233  .00002122  00000-0  16135-3 0  9991","BSTAR":"0.00016135000000","MEAN_ELEMENT_THEORY":"SGP4","NORAD_CAT_ID":"45783","SITE":"AFETR","SEMIMAJOR_AXIS":"6925.367","MEAN_MOTION":"15.06394052","GP_ID":"222087049","REV_AT_EPOCH":"14269","PERIAPSIS":"545.103","MEAN_ANOMALY":"331.4142","INCLINATION":"53.0563","DECAY_DATE":null,"OBJECT_ID":"2020-038BF","OBJECT_TYPE":"PAYLOAD"}];
